[{"OBJECT_NAME":"ORBCOMM FM19","OBJECT_ID":"1998-046C","EPOCH":"2026-03-09T00:07:17.563296","MEAN_MOTION":14.39270127,"ECCENTRICITY":0.00018158,"INCLINATION":44.9959,"RA_OF_ASC_NODE":359.683,"ARG_OF_PERICENTER":187.4459,"MEAN_ANOMALY":272.3467,"EPHEMERIS_TYPE":0,"CLASSIFICATION_TYPE":"U","NORAD_CAT_ID":25415,"ELEMENT_SET_NO":999,"REV_AT_EPOCH":44234,"BSTAR":0.00058926699,"MEAN_MOTION_DOT":1.703e-5,"MEAN_MOTION_DDOT":0},{"OBJECT_NAME":"SL-8 R\/B","OBJECT_ID":"1987-006B","EPOCH":"2026-03-09T22:54:34.409088","MEAN_MOTION":14.39147667,"ECCENTRICITY":0.00279519,"INCLINATION":74.0605,"RA_OF_ASC_NODE":347.558,"ARG_OF_PERICENTER":109.062,"MEAN_ANOMALY":251.3565,"EPHEMERIS_TYPE":0,"CLASSIFICATION_TYPE":"U","NORAD_CAT_ID":17304,"ELEMENT_SET_NO":999,"REV_AT_EPOCH":5128,"BSTAR":0.00011866842,"MEAN_MOTION_DOT":3.43e-6,"MEAN_MOTION_DDOT":0}]
